ONEWEB-0597             
1 54663U 22166X   25175.62100814  .00000165  00000+0  36712-3 0  9996
2 54663  87.9272 315.3084 0001689 102.0025 258.1299 13.21826108124307
ONEWEB-0600             
1 54664U 22166Y   25175.75503163 -.00000068  00000+0 -19610-3 0  9997
2 54664  87.9258 315.2836 0001785 103.3927 256.7406 13.21827112124296
ONEWEB-0601             
1 54665U 22166Z   25175.74714119 -.00000078  00000+0 -21976-3 0  9991
2 54665  87.9274 315.2944 0001541 101.1368 258.9939 13.21826878124484
ONEWEB-0602             
1 54666U 22166AA  25175.86385775  .00000050  00000+0  89998-4 0  9994
2 54666  87.9260 315.2708 0001758 103.8569 256.2761 13.21826546124341
ONEWEB-0603             
1 54667U 22166AB  25175.33871467  .00000076  00000+0  15230-3 0  9990
2 54667  87.9247 315.3195 0001558 101.6737 258.4572 13.21826515124204
ONEWEB-0604             
1 54668U 22166AC  25174.79620874  .00000028  00000+0  36754-4 0  9996
2 54668  87.9261 315.4445 0001694 104.2956 255.8367 13.21827019124093
ONEWEB-0605             
1 54669U 22166AD  25175.77396379  .00000018  00000+0  11111-4 0  9995
2 54669  87.9265 315.2809 0001208  85.4814 274.6458 13.21826740124296
ONEWEB-0606             
1 54670U 22166AE  25175.11476712  .00000057  00000+0  10638-3 0  9990
2 54670  87.9270 315.4225 0002055  96.6303 263.5065 13.21827449124261
